[{"OBJECT_NAME":"DELTA 2 R/B(2)","OBJECT_ID":"1992-066C","EPOCH":"2026-03-28T18:20:29.845248","MEAN_MOTION":2.18730775,"ECCENTRICITY":0.68504587,"INCLINATION":19.0541,"RA_OF_ASC_NODE":129.8959,"ARG_OF_PERICENTER":170.3715,"MEAN_ANOMALY":214.2144,"EPHEMERIS_TYPE":0,"CLASSIFICATION_TYPE":"U","NORAD_CAT_ID":22177,"ELEMENT_SET_NO":999,"REV_AT_EPOCH":4794,"BSTAR":0,"MEAN_MOTION_DOT":0,"MEAN_MOTION_DDOT":0},{"OBJECT_NAME":"MOLNIYA 3-42","OBJECT_ID":"1992-067A","EPOCH":"2026-03-26T12:36:22.034592","MEAN_MOTION":2.20433379,"ECCENTRICITY":0.69556256,"INCLINATION":64.4492,"RA_OF_ASC_NODE":55.5382,"ARG_OF_PERICENTER":248.1833,"MEAN_ANOMALY":28.3519,"EPHEMERIS_TYPE":0,"CLASSIFICATION_TYPE":"U","NORAD_CAT_ID":22178,"ELEMENT_SET_NO":999,"REV_AT_EPOCH":11043,"BSTAR":0,"MEAN_MOTION_DOT":3.1e-7,"MEAN_MOTION_DDOT":0},{"OBJECT_NAME":"SL-6 R/B(2)","OBJECT_ID":"1992-067D","EPOCH":"2026-03-25T05:03:46.060128","MEAN_MOTION":2.0074379,"ECCENTRICITY":0.6792205,"INCLINATION":64.1126,"RA_OF_ASC_NODE":166.5741,"ARG_OF_PERICENTER":253.1787,"MEAN_ANOMALY":26.994,"EPHEMERIS_TYPE":0,"CLASSIFICATION_TYPE":"U","NORAD_CAT_ID":22181,"ELEMENT_SET_NO":999,"REV_AT_EPOCH":24175,"BSTAR":0,"MEAN_MOTION_DOT":-7.48e-6,"MEAN_MOTION_DDOT":0},{"OBJECT_NAME":"SL-6 R/B(2)","OBJECT_ID":"1992-069D","EPOCH":"2026-03-29T02:58:07.692096","MEAN_MOTION":2.02811456,"ECCENTRICITY":0.6498456,"INCLINATION":68.2691,"RA_OF_ASC_NODE":93.6822,"ARG_OF_PERICENTER":355.6586,"MEAN_ANOMALY":199.965,"EPHEMERIS_TYPE":0,"CLASSIFICATION_TYPE":"U","NORAD_CAT_ID":22192,"ELEMENT_SET_NO":999,"REV_AT_EPOCH":24271,"BSTAR":0,"MEAN_MOTION_DOT":6.7e-7,"MEAN_MOTION_DDOT":0},{"OBJECT_NAME":"GALAXY 7 (G-7)","OBJECT_ID":"1992-072A","EPOCH":"2026-03-27T05:54:03.159360","MEAN_MOTION":0.99701726,"ECCENTRICITY":0.0007247,"INCLINATION":14.486,"RA_OF_ASC_NODE":3.8994,"ARG_OF_PERICENTER":28.3465,"MEAN_ANOMALY":163.9287,"EPHEMERIS_TYPE":0,"CLASSIFICATION_TYPE":"U","NORAD_CAT_ID":22205,"ELEMENT_SET_NO":999,"REV_AT_EPOCH":11606,"BSTAR":0,"MEAN_MOTION_DOT":-2.08e-6,"MEAN_MOTION_DDOT":0},{"OBJECT_NAME":"EKRAN 20","OBJECT_ID":"1992-074A","EPOCH":"2026-03-28T20:09:32.449824","MEAN_MOTION":1.00282737,"ECCENTRICITY":0.00031458,"INCLINATION":13.7355,"RA_OF_ASC_NODE":344.8879,"ARG_OF_PERICENTER":230.7195,"MEAN_ANOMALY":323.6727,"EPHEMERIS_TYPE":0,"CLASSIFICATION_TYPE":"U","NORAD_CAT_ID":22210,"ELEMENT_SET_NO":999,"REV_AT_EPOCH":4656,"BSTAR":0,"MEAN_MOTION_DOT":6.9e-7,"MEAN_MOTION_DDOT":0},{"OBJECT_NAME":"SL-12 R/B(2)","OBJECT_ID":"1992-074D","EPOCH":"2026-03-28T07:16:26.086944","MEAN_MOTION":1.01143216,"ECCENTRICITY":0.00196611,"INCLINATION":13.3172,"RA_OF_ASC_NODE":343.3993,"ARG_OF_PERICENTER":147.0966,"MEAN_ANOMALY":23.7443,"EPHEMERIS_TYPE":0,"CLASSIFICATION_TYPE":"U","NORAD_CAT_ID":22213,"ELEMENT_SET_NO":999,"REV_AT_EPOCH":12495,"BSTAR":0,"MEAN_MOTION_DOT":-3.2e-7,"MEAN_MOTION_DDOT":0},{"OBJECT_NAME":"SL-6 R/B(2)","OBJECT_ID":"1992-081D","EPOCH":"2026-03-26T03:53:19.009248","MEAN_MOTION":2.03442578,"ECCENTRICITY":0.63732804,"INCLINATION":68.702,"RA_OF_ASC_NODE":14.3488,"ARG_OF_PERICENTER":18.852,"MEAN_ANOMALY":356.6119,"EPHEMERIS_TYPE":0,"CLASSIFICATION_TYPE":"U","NORAD_CAT_ID":22241,"ELEMENT_SET_NO":999,"REV_AT_EPOCH":24763,"BSTAR":0,"MEAN_MOTION_DOT":-5.39e-6,"MEAN_MOTION_DDOT":0},{"OBJECT_NAME":"GORIZONT 27","OBJECT_ID":"1992-082A","EPOCH":"2026-03-28T21:42:40.745664","MEAN_MOTION":1.00190752,"ECCENTRICITY":0.0012434,"INCLINATION":13.7638,"RA_OF_ASC_NODE":344.5725,"ARG_OF_PERICENTER":20.388,"MEAN_ANOMALY":164.1581,"EPHEMERIS_TYPE":0,"CLASSIFICATION_TYPE":"U","NORAD_CAT_ID":22245,"ELEMENT_SET_NO":999,"REV_AT_EPOCH":12631,"BSTAR":0,"MEAN_MOTION_DOT":5.8e-7,"MEAN_MOTION_DDOT":0},{"OBJECT_NAME":"HIMAWARI-3 AKM","OBJECT_ID":"1984-080E","EPOCH":"2026-03-28T21:34:41.513376","MEAN_MOTION":0.99756619,"ECCENTRICITY":0.0136846,"INCLINATION":9.6549,"RA_OF_ASC_NODE":316.6523,"ARG_OF_PERICENTER":109.2222,"MEAN_ANOMALY":71.376,"EPHEMERIS_TYPE":0,"CLASSIFICATION_TYPE":"U","NORAD_CAT_ID":22266,"ELEMENT_SET_NO":999,"REV_AT_EPOCH":11668,"BSTAR":0,"MEAN_MOTION_DOT":-2.63e-6,"MEAN_MOTION_DDOT":0},{"OBJECT_NAME":"COSMOS 2224","OBJECT_ID":"1992-088A","EPOCH":"2026-03-29T00:56:52.044864","MEAN_MOTION":1.00251028,"ECCENTRICITY":0.0006732,"INCLINATION":13.675,"RA_OF_ASC_NODE":348.5415,"ARG_OF_PERICENTER":278.9435,"MEAN_ANOMALY":271.1358,"EPHEMERIS_TYPE":0,"CLASSIFICATION_TYPE":"U","NORAD_CAT_ID":22269,"ELEMENT_SET_NO":999,"REV_AT_EPOCH":12128,"BSTAR":0,"MEAN_MOTION_DOT":-2.06e-6,"MEAN_MOTION_DDOT":0},{"OBJECT_NAME":"SL-12 R/B(2)","OBJECT_ID":"1992-088D","EPOCH":"2026-03-29T00:55:52.142016","MEAN_MOTION":1.00074914,"ECCENTRICITY":0.0008312,"INCLINATION":13.7762,"RA_OF_ASC_NODE":349.0077,"ARG_OF_PERICENTER":156.1083,"MEAN_ANOMALY":29.7361,"EPHEMERIS_TYPE":0,"CLASSIFICATION_TYPE":"U","NORAD_CAT_ID":22272,"ELEMENT_SET_NO":999,"REV_AT_EPOCH":4648,"BSTAR":0,"MEAN_MOTION_DOT":-2.49e-6,"MEAN_MOTION_DDOT":0},{"OBJECT_NAME":"TDRS 6","OBJECT_ID":"1993-003B","EPOCH":"2026-03-28T21:19:27.384960","MEAN_MOTION":1.0026987,"ECCENTRICITY":0.0005043,"INCLINATION":14.1817,"RA_OF_ASC_NODE":357.6547,"ARG_OF_PERICENTER":185.4414,"MEAN_ANOMALY":277.229,"EPHEMERIS_TYPE":0,"CLASSIFICATION_TYPE":"U","NORAD_CAT_ID":22314,"ELEMENT_SET_NO":999,"REV_AT_EPOCH":12160,"BSTAR":0,"MEAN_MOTION_DOT":-3.08e-6,"MEAN_MOTION_DDOT":0},{"OBJECT_NAME":"IUS R/B(2)","OBJECT_ID":"1993-003D","EPOCH":"2026-03-28T23:20:41.811360","MEAN_MOTION":1.00136774,"ECCENTRICITY":0.0067239,"INCLINATION":11.9057,"RA_OF_ASC_NODE":344.9705,"ARG_OF_PERICENTER":123.2398,"MEAN_ANOMALY":68.4642,"EPHEMERIS_TYPE":0,"CLASSIFICATION_TYPE":"U","NORAD_CAT_ID":22316,"ELEMENT_SET_NO":999,"REV_AT_EPOCH":12638,"BSTAR":0,"MEAN_MOTION_DOT":-6.3e-7,"MEAN_MOTION_DDOT":0},{"OBJECT_NAME":"RADUGA 29","OBJECT_ID":"1993-013A","EPOCH":"2026-03-28T16:55:15.518208","MEAN_MOTION":1.00380732,"ECCENTRICITY":0.0002974,"INCLINATION":13.8846,"RA_OF_ASC_NODE":345.7169,"ARG_OF_PERICENTER":192.6649,"MEAN_ANOMALY":350.8109,"EPHEMERIS_TYPE":0,"CLASSIFICATION_TYPE":"U","NORAD_CAT_ID":22557,"ELEMENT_SET_NO":999,"REV_AT_EPOCH":12087,"BSTAR":0,"MEAN_MOTION_DOT":-2.74e-6,"MEAN_MOTION_DDOT":0},{"OBJECT_NAME":"ARSENE (AO-24)","OBJECT_ID":"1993-031B","EPOCH":"2026-03-29T01:10:13.264032","MEAN_MOTION":1.42203019,"ECCENTRICITY":0.2852679,"INCLINATION":5.1517,"RA_OF_ASC_NODE":49.3733,"ARG_OF_PERICENTER":331.4647,"MEAN_ANOMALY":225.9895,"EPHEMERIS_TYPE":0,"CLASSIFICATION_TYPE":"U","NORAD_CAT_ID":22654,"ELEMENT_SET_NO":999,"REV_AT_EPOCH":16628,"BSTAR":0,"MEAN_MOTION_DOT":-1.57e-6,"MEAN_MOTION_DDOT":0},{"OBJECT_NAME":"TITAN 34D TRANSTAGE DEB","OBJECT_ID":"1988-077D","EPOCH":"2026-03-28T13:09:07.097184","MEAN_MOTION":2.16291394,"ECCENTRICITY":0.7295106,"INCLINATION":26.6349,"RA_OF_ASC_NODE":202.9455,"ARG_OF_PERICENTER":359.6047,"MEAN_ANOMALY":359.8907,"EPHEMERIS_TYPE":0,"CLASSIFICATION_TYPE":"U","NORAD_CAT_ID":22668,"ELEMENT_SET_NO":999,"REV_AT_EPOCH":5343,"BSTAR":0.0008971,"MEAN_MOTION_DOT":-9.8e-7,"MEAN_MOTION_DDOT":0}]
