DELTA 2 R/B(2)          
1 22177U 92066C   26087.76423432  .00000000  00000+0  00000+0 0  9994
2 22177  19.0541 129.8959 6850458 170.3715 214.2144  2.18730775 47946
MOLNIYA 3-42            
1 22178U 92067A   26085.52525503  .00000031  00000+0  00000+0 0  9994
2 22178  64.4492  55.5382 6955625 248.1833  28.3519  2.20433379110436
SL-6 R/B(2)             
1 22181U 92067D   26084.21094977 -.00000748  00000+0  00000+0 0  9995
2 22181  64.1126 166.5741 6792205 253.1787  26.9940  2.00743790241751
SL-6 R/B(2)             
1 22192U 92069D   26088.12370014  .00000067  00000+0  00000+0 0  9995
2 22192  68.2691  93.6822 6498456 355.6586 199.9650  2.02811456242714
GALAXY 7 (G-7)          
1 22205U 92072A   26086.24586990 -.00000208  00000+0  00000+0 0  9995
2 22205  14.4860   3.8994 0007247  28.3465 163.9287  0.99701726116068
EKRAN 20                
1 22210U 92074A   26087.83995891  .00000069  00000+0  00000+0 0  9997
2 22210  13.7355 344.8879 0003145 230.7195 323.6727  1.00282737 46567
SL-12 R/B(2)            
1 22213U 92074D   26087.30307971 -.00000032  00000+0  00000+0 0  9999
2 22213  13.3172 343.3993 0019661 147.0966  23.7443  1.01143216124952
SL-6 R/B(2)             
1 22241U 92081D   26085.16202557 -.00000539  00000+0  00000+0 0  9996
2 22241  68.7020  14.3488 6373280  18.8520 356.6119  2.03442578247635
GORIZONT 27             
1 22245U 92082A   26087.90463826  .00000058  00000+0  00000+0 0  9998
2 22245  13.7638 344.5725 0012434  20.3880 164.1581  1.00190752126314
HIMAWARI-3 AKM          
1 22266U 84080E   26087.89909159 -.00000263  00000+0  00000+0 0  9991
2 22266   9.6549 316.6523 0136846 109.2222  71.3760  0.99756619116683
COSMOS 2224             
1 22269U 92088A   26088.03949126 -.00000206  00000+0  00000+0 0  9993
2 22269  13.6750 348.5415 0006732 278.9435 271.1358  1.00251028121281
SL-12 R/B(2)            
1 22272U 92088D   26088.03879794 -.00000249  00000+0  00000+0 0  9997
2 22272  13.7762 349.0077 0008312 156.1083  29.7361  1.00074914 46487
TDRS 6                  
1 22314U 93003B   26087.88851140 -.00000308  00000+0  00000+0 0  9995
2 22314  14.1817 357.6547 0005043 185.4414 277.2290  1.00269870121604
IUS R/B(2)              
1 22316U 93003D   26087.97270615 -.00000063  00000+0  00000+0 0  9997
2 22316  11.9057 344.9705 0067239 123.2398  68.4642  1.00136774126385
RADUGA 29               
1 22557U 93013A   26087.70504072 -.00000274  00000+0  00000+0 0  9997
2 22557  13.8846 345.7169 0002974 192.6649 350.8109  1.00380732120875
ARSENE (AO-24)          
1 22654U 93031B   26088.04876463 -.00000157  00000+0  00000+0 0  9999
2 22654   5.1517  49.3733 2852679 331.4647 225.9895  1.42203019166281
TITAN 34D TRANSTAGE DEB 
1 22668U 88077D   26087.54799881 -.00000098  00000+0  89710-3 0  9993
2 22668  26.6349 202.9455 7295106 359.6047 359.8907  2.16291394 53430
